OBJECT_NAME,OBJECT_ID,EPOCH,MEAN_MOTION,ECCENTRICITY,INCLINATION,RA_OF_ASC_NODE,ARG_OF_PERICENTER,MEAN_ANOMALY,EPHEMERIS_TYPE,CLASSIFICATION_TYPE,NORAD_CAT_ID,ELEMENT_SET_NO,REV_AT_EPOCH,BSTAR,MEAN_MOTION_DOT,MEAN_MOTION_DDOT
STARLINK-38067,2026-150J,2026-07-17T19:44:57.590592,15.75192520,.00017456,97.2835,37.2956,92.1933,267.9532,0,U,69747,999,373,.76658765E-3,.115789E-2,0
STARLINK-37988,2026-150K,2026-07-17T19:42:25.176672,15.75326244,.00012526,97.2835,37.2979,112.9896,247.1501,0,U,69748,999,373,.133008E-2,.204278E-2,0
STARLINK-37987,2026-150L,2026-07-17T19:36:19.258848,15.75214396,.00022259,97.2843,37.3043,97.9668,262.1850,0,U,69749,999,373,.85621381E-3,.129681E-2,0
STARLINK-38037,2026-150M,2026-07-17T19:03:54.748224,15.80987860,.00014149,97.2850,37.3356,103.1301,257.0125,0,U,69750,999,373,.13458559E-2,.267818E-2,0
STARLINK-38049,2026-150N,2026-07-17T12:57:49.877568,15.80940262,.0001346,97.2845,37.0688,104.0296,256.1122,0,U,69751,999,369,.14753E-2,.293836E-2,0
STARLINK-38029,2026-150P,2026-07-17T22:00:01.999584,15.75186118,.00010938,97.2849,37.4505,107.5424,192.1517,0,U,69752,999,373,-.15825416E-3,-.23664E-3,0
STARLINK-37965,2026-150Q,2026-07-17T11:44:39.458112,15.75316047,.0001625,97.2842,36.9844,120.0515,240.0911,0,U,69753,999,368,.10796E-2,.164945E-2,0
STARLINK-38048,2026-150R,2026-07-17T12:49:00.954048,15.80862549,.0000872,97.2827,37.0770,105.1327,255.0038,0,U,69754,999,369,.75605E-3,.147462E-2,0
STARLINK-38006,2026-150S,2026-07-17T22:00:01.999584,15.75194294,.00008565,97.2846,37.4563,123.4954,190.1958,0,U,69755,999,373,-.26157297E-3,-.38973E-3,0
STARLINK-38036,2026-150T,2026-07-17T22:00:01.999584,15.75190366,.00009376,97.2855,37.4729,92.5163,259.1696,0,U,69756,999,373,-.19888174E-3,-.2969E-3,0
STARLINK-38058,2026-150U,2026-07-17T22:00:01.999584,15.79767371,.00013441,97.2843,37.4933,74.1006,326.5022,0,U,69757,999,373,-.11604771E-1,-.1857399E-1,0
STARLINK-38066,2026-150V,2026-07-17T12:42:32.383008,15.80539037,.0002245,97.2819,37.0863,92.5096,267.6429,0,U,69758,999,369,.14431E-2,.281833E-2,0
STARLINK-38035,2026-150W,2026-07-16T12:23:54.049920,15.80943955,.0001208,97.2826,36.0135,127.8766,232.2612,0,U,69759,999,353,.16439E-2,.328828E-2,0
STARLINK-38056,2026-150X,2026-07-17T12:37:22.905984,15.80878793,.0001248,97.2834,37.0896,110.0556,250.0847,0,U,69760,999,369,.87587E-3,.171456E-2,0
STARLINK-38069,2026-150Y,2026-07-17T20:08:29.789952,15.79871740,.00040103,97.2838,37.4292,0.9354,359.1921,0,U,69761,999,374,-.14199104E-4,-.2747E-4,0
STARLINK-38019,2026-150Z,2026-07-17T22:10:49.094112,15.75211631,.0000465,97.2844,37.4652,75.8835,284.2482,0,U,69762,999,375,.56894634E-3,.85666E-3,0
KUIPER-00258,2026-151A,2026-07-17T22:28:07.473504,15.34767856,.00115173,51.8673,167.3485,176.1999,183.9076,0,U,69763,999,243,.10822636E-3,.3326E-4,0
KUIPER-00526,2026-151B,2026-07-17T11:05:40.705152,15.37352408,.0005842,51.8774,169.4309,149.0343,211.0989,0,U,69764,999,236,.33725E-3,.12172E-3,0
KUIPER-00558,2026-151C,2026-07-17T22:00:01.999584,15.33518626,.00069423,51.8777,167.3212,171.7253,141.2440,0,U,69765,999,303,.12721858E-2,.41723E-3,0
KUIPER-00569,2026-151D,2026-07-17T21:58:23.902752,15.37510491,.00053005,51.8783,167.2196,142.1548,217.9812,0,U,69766,999,243,.53327085E-3,.19595E-3,0
KUIPER-00589,2026-151E,2026-07-17T11:04:26.611968,15.37378719,.0005366,51.8764,169.4246,150.2740,209.8552,0,U,69767,999,236,.33874E-3,.12237E-3,0
KUIPER-00598,2026-151F,2026-07-17T22:00:01.999584,15.34413763,.00088038,51.8640,167.4390,173.1576,78.0541,0,U,69768,999,297,.97802161E-3,.32892E-3,0
KUIPER-00604,2026-151G,2026-07-17T21:47:28.658112,15.38282933,.00027413,51.8803,167.1691,111.4868,248.6412,0,U,69769,999,243,.38287839E-3,.14306E-3,0
KUIPER-00609,2026-151H,2026-07-17T15:27:18.807552,15.38674387,.00014189,51.8808,168.3993,55.6122,304.4999,0,U,69770,999,239,.38144281E-3,.14438E-3,0
KUIPER-00611,2026-151J,2026-07-17T21:44:21.946848,15.38498678,.00017498,51.8804,167.1516,100.2434,259.8751,0,U,69771,999,243,.38890471E-3,.14642E-3,0
KUIPER-00612,2026-151K,2026-07-17T21:51:49.177440,15.37985007,.00037856,51.8795,167.1902,122.3507,237.7847,0,U,69772,999,243,.38369877E-3,.14197E-3,0
KUIPER-00614,2026-151L,2026-07-17T21:48:44.488800,15.38191068,.00027058,51.8806,167.1732,127.0358,233.0877,0,U,69773,999,243,.36068969E-3,.13411E-3,0
KUIPER-00615,2026-151M,2026-07-17T22:02:15.358848,15.37267291,.00059154,51.8777,167.2380,153.7507,206.3781,0,U,69774,999,243,.35486192E-3,.12794E-3,0
KUIPER-00616,2026-151N,2026-07-17T21:46:11.038944,15.38408173,.00031201,51.8787,167.1652,128.2453,231.8815,0,U,69775,999,243,.33967829E-4,.911E-5,0
KUIPER-00617,2026-151P,2026-07-17T21:53:47.039136,15.37827270,.00038852,51.8798,167.1986,140.6407,219.4863,0,U,69776,999,243,.40030888E-3,.14753E-3,0
